IRIDIUM 126             
1 42809U 17039G   25231.74865377  .00000202  00000+0  65210-4 0  9994
2 42809  86.3974 119.6827 0001941  83.5826 276.5590 14.34218757426753
IRIDIUM 124             
1 42810U 17039H   25231.60191032  .00000113  00000+0  27604-4 0  9997
2 42810  86.4444  56.4342 0002306  92.9025 267.2440 14.43279600431615
IRIDIUM 128             
1 42811U 17039J   25231.32077332 -.00000006  00000+0 -93308-5 0  9991
2 42811  86.4031 151.3487 0002322  90.4654 269.6807 14.34217442426716
IRIDIUM 121             
1 42812U 17039K   25231.62813591  .00000046  00000+0  93949-5 0  9993
2 42812  86.3974 119.7586 0002276  85.8236 274.3220 14.34216995426604
IRIDIUM 133             
1 42955U 17061A   25231.28271600  .00000101  00000+0  28828-4 0  9992
2 42955  86.4032 151.4748 0002202  85.5436 274.6012 14.34218104411508
IRIDIUM 100             
1 42956U 17061B   25231.27637389  .00000007  00000+0 -45035-5 0  9998
2 42956  86.4030 151.4031 0002053  89.0615 271.0816 14.34217551411502
IRIDIUM 122             
1 42957U 17061C   25231.87257775  .00000040  00000+0  70468-5 0  9996
2 42957  86.4030 151.1540 0002097  85.0727 275.0708 14.34217647411592
IRIDIUM 129             
1 42958U 17061D   25231.33980007 -.00000015  00000+0 -12406-4 0  9990
2 42958  86.4031 151.4397 0002051  72.0739 288.0681 14.34217366411532
